{
 "generated_at": "2026-07-20T08:05:52Z",
 "sources": [
  {
   "name": "CelesTrak",
   "url": "https://celestrak.org/NORAD/elements/",
   "license": "frei verfügbar; Attribution. Ursprünglich USSPACECOM/Space-Track."
  },
  {
   "name": "GCAT (J. McDowell, planet4589.org)",
   "url": "https://planet4589.org/space/gcat/",
   "license": "CC-BY 4.0"
  }
 ],
 "satellites": [
  {
   "norad": 41884,
   "name": "CYGFM05",
   "intl": "2016-078A",
   "group": "weather",
   "gcat": {
    "class": "C",
    "category": "EOSCI",
    "owner": "LARCN/SWRIB",
    "state": "US"
   },
   "omm": {
    "OBJECT_NAME": "CYGFM05",
    "OBJECT_ID": "2016-078A",
    "EPOCH": "2026-07-19T20:54:55.948032",
    "MEAN_MOTION": 15.57999934,
    "ECCENTRICITY": 0.0005319,
    "INCLINATION": 34.9573,
    "RA_OF_ASC_NODE": 43.9264,
    "ARG_OF_PERICENTER": 88.6074,
    "MEAN_ANOMALY": 271.526,
    "EPHEMERIS_TYPE": 0,
    "CLASSIFICATION_TYPE": "U",
    "NORAD_CAT_ID": 41884,
    "ELEMENT_SET_NO": 999,
    "REV_AT_EPOCH": 53385,
    "BSTAR": 0.00020458,
    "MEAN_MOTION_DOT": 0.00015836,
    "MEAN_MOTION_DDOT": 0
   }
  },
  {
   "norad": 41890,
   "name": "CYGFM07",
   "intl": "2016-078G",
   "group": "weather",
   "gcat": {
    "class": "C",
    "category": "EOSCI",
    "owner": "LARCN/SWRIB",
    "state": "US"
   },
   "omm": {
    "OBJECT_NAME": "CYGFM07",
    "OBJECT_ID": "2016-078G",
    "EPOCH": "2026-07-19T19:57:05.306688",
    "MEAN_MOTION": 15.61746801,
    "ECCENTRICITY": 0.0004644,
    "INCLINATION": 34.9455,
    "RA_OF_ASC_NODE": 11.9703,
    "ARG_OF_PERICENTER": 139.0403,
    "MEAN_ANOMALY": 221.0672,
    "EPHEMERIS_TYPE": 0,
    "CLASSIFICATION_TYPE": "U",
    "NORAD_CAT_ID": 41890,
    "ELEMENT_SET_NO": 999,
    "REV_AT_EPOCH": 53410,
    "BSTAR": 0.00022396,
    "MEAN_MOTION_DOT": 0.00020034,
    "MEAN_MOTION_DDOT": 0
   }
  },
  {
   "norad": 41888,
   "name": "CYGFM08",
   "intl": "2016-078E",
   "group": "weather",
   "gcat": {
    "class": "C",
    "category": "EOSCI",
    "owner": "LARCN/SWRIB",
    "state": "US"
   },
   "omm": {
    "OBJECT_NAME": "CYGFM08",
    "OBJECT_ID": "2016-078E",
    "EPOCH": "2026-07-19T20:59:01.603104",
    "MEAN_MOTION": 15.61638702,
    "ECCENTRICITY": 0.0005978,
    "INCLINATION": 34.9437,
    "RA_OF_ASC_NODE": 23.371,
    "ARG_OF_PERICENTER": 120.9672,
    "MEAN_ANOMALY": 239.1641,
    "EPHEMERIS_TYPE": 0,
    "CLASSIFICATION_TYPE": "U",
    "NORAD_CAT_ID": 41888,
    "ELEMENT_SET_NO": 999,
    "REV_AT_EPOCH": 53408,
    "BSTAR": 0.00022753,
    "MEAN_MOTION_DOT": 0.00020276,
    "MEAN_MOTION_DDOT": 0
   }
  },
  {
   "norad": 35681,
   "name": "DEIMOS-1",
   "intl": "2009-041A",
   "group": "resource",
   "gcat": {
    "class": "B",
    "category": "IMG",
    "owner": "DEIMOS",
    "state": "E"
   },
   "omm": {
    "OBJECT_NAME": "DEIMOS-1",
    "OBJECT_ID": "2009-041A",
    "EPOCH": "2026-07-19T21:05:13.515360",
    "MEAN_MOTION": 14.75267658,
    "ECCENTRICITY": 0.0002798,
    "INCLINATION": 97.7444,
    "RA_OF_ASC_NODE": 356.6956,
    "ARG_OF_PERICENTER": 85.3667,
    "MEAN_ANOMALY": 274.7862,
    "EPHEMERIS_TYPE": 0,
    "CLASSIFICATION_TYPE": "U",
    "NORAD_CAT_ID": 35681,
    "ELEMENT_SET_NO": 999,
    "REV_AT_EPOCH": 91170,
    "BSTAR": 0.00008572,
    "MEAN_MOTION_DOT": 0.00000532,
    "MEAN_MOTION_DDOT": 0
   }
  },
  {
   "norad": 40013,
   "name": "DEIMOS-2",
   "intl": "2014-033D",
   "group": "resource",
   "gcat": {
    "class": "B",
    "category": "IMG",
    "owner": "ELDEC",
    "state": "E"
   },
   "omm": {
    "OBJECT_NAME": "DEIMOS-2",
    "OBJECT_ID": "2014-033D",
    "EPOCH": "2026-07-19T19:19:58.825344",
    "MEAN_MOTION": 14.93805073,
    "ECCENTRICITY": 0.0001444,
    "INCLINATION": 97.578,
    "RA_OF_ASC_NODE": 74.1419,
    "ARG_OF_PERICENTER": 106.6103,
    "MEAN_ANOMALY": 253.5276,
    "EPHEMERIS_TYPE": 0,
    "CLASSIFICATION_TYPE": "U",
    "NORAD_CAT_ID": 40013,
    "ELEMENT_SET_NO": 999,
    "REV_AT_EPOCH": 64259,
    "BSTAR": 0.00012139,
    "MEAN_MOTION_DOT": 0.00001233,
    "MEAN_MOTION_DDOT": 0
   }
  },
  {
   "norad": 25757,
   "name": "DLR-TUBSAT",
   "intl": "1999-029B",
   "group": "resource",
   "gcat": {
    "class": null,
    "category": null,
    "owner": null,
    "state": null
   },
   "omm": {
    "OBJECT_NAME": "DLR-TUBSAT",
    "OBJECT_ID": "1999-029B",
    "EPOCH": "2026-07-19T11:09:45.258624",
    "MEAN_MOTION": 14.52433739,
    "ECCENTRICITY": 0.00130362,
    "INCLINATION": 98.6713,
    "RA_OF_ASC_NODE": 197.0341,
    "ARG_OF_PERICENTER": 250.6388,
    "MEAN_ANOMALY": 109.3398,
    "EPHEMERIS_TYPE": 0,
    "CLASSIFICATION_TYPE": "U",
    "NORAD_CAT_ID": 25757,
    "ELEMENT_SET_NO": 999,
    "REV_AT_EPOCH": 43793,
    "BSTAR": 0.000012968453,
    "MEAN_MOTION_DOT": 4e-8,
    "MEAN_MOTION_DDOT": 0
   }
  },
  {
   "norad": 28054,
   "name": "DMSP 5D-3 F16 (USA 172)",
   "intl": "2003-048A",
   "group": "weather",
   "gcat": {
    "class": null,
    "category": null,
    "owner": null,
    "state": null
   },
   "omm": {
    "OBJECT_NAME": "DMSP 5D-3 F16 (USA 172)",
    "OBJECT_ID": "2003-048A",
    "EPOCH": "2026-07-19T20:28:24.319200",
    "MEAN_MOTION": 14.14484701,
    "ECCENTRICITY": 0.0007982,
    "INCLINATION": 98.9896,
    "RA_OF_ASC_NODE": 224.8963,
    "ARG_OF_PERICENTER": 59.6833,
    "MEAN_ANOMALY": 43.2128,
    "EPHEMERIS_TYPE": 0,
    "CLASSIFICATION_TYPE": "U",
    "NORAD_CAT_ID": 28054,
    "ELEMENT_SET_NO": 999,
    "REV_AT_EPOCH": 17410,
    "BSTAR": -0.0000096118,
    "MEAN_MOTION_DOT": -6.4e-7,
    "MEAN_MOTION_DDOT": 0
   }
  },
  {
   "norad": 29522,
   "name": "DMSP 5D-3 F17 (USA 191)",
   "intl": "2006-050A",
   "group": "weather",
   "gcat": {
    "class": "D",
    "category": "MET",
    "owner": "AFSMC",
    "state": "US"
   },
   "omm": {
    "OBJECT_NAME": "DMSP 5D-3 F17 (USA 191)",
    "OBJECT_ID": "2006-050A",
    "EPOCH": "2026-07-19T20:07:05.884320",
    "MEAN_MOTION": 14.14996271,
    "ECCENTRICITY": 0.0009456,
    "INCLINATION": 98.7389,
    "RA_OF_ASC_NODE": 206.7417,
    "ARG_OF_PERICENTER": 329.0074,
    "MEAN_ANOMALY": 31.0541,
    "EPHEMERIS_TYPE": 0,
    "CLASSIFICATION_TYPE": "U",
    "NORAD_CAT_ID": 29522,
    "ELEMENT_SET_NO": 999,
    "REV_AT_EPOCH": 1704,
    "BSTAR": 0.0000093939,
    "MEAN_MOTION_DOT": -2.5e-7,
    "MEAN_MOTION_DDOT": 0
   }
  },
  {
   "norad": 35951,
   "name": "DMSP 5D-3 F18 (USA 210)",
   "intl": "2009-057A",
   "group": "weather",
   "gcat": {
    "class": "D",
    "category": "MET",
    "owner": "AFSMC",
    "state": "US"
   },
   "omm": {
    "OBJECT_NAME": "DMSP 5D-3 F18 (USA 210)",
    "OBJECT_ID": "2009-057A",
    "EPOCH": "2026-07-19T21:10:38.595360",
    "MEAN_MOTION": 14.14913729,
    "ECCENTRICITY": 0.0011505,
    "INCLINATION": 98.906,
    "RA_OF_ASC_NODE": 181.5842,
    "ARG_OF_PERICENTER": 152.575,
    "MEAN_ANOMALY": 207.6033,
    "EPHEMERIS_TYPE": 0,
    "CLASSIFICATION_TYPE": "U",
    "NORAD_CAT_ID": 35951,
    "ELEMENT_SET_NO": 999,
    "REV_AT_EPOCH": 86421,
    "BSTAR": 0.00010812,
    "MEAN_MOTION_DOT": 0.00000164,
    "MEAN_MOTION_DDOT": 0
   }
  },
  {
   "norad": 35682,
   "name": "DUBAISAT-1",
   "intl": "2009-041B",
   "group": "resource",
   "gcat": {
    "class": null,
    "category": null,
    "owner": null,
    "state": null
   },
   "omm": {
    "OBJECT_NAME": "DUBAISAT-1",
    "OBJECT_ID": "2009-041B",
    "EPOCH": "2026-07-19T18:48:11.255904",
    "MEAN_MOTION": 14.75170399,
    "ECCENTRICITY": 0.0009564,
    "INCLINATION": 98.0091,
    "RA_OF_ASC_NODE": 333.6918,
    "ARG_OF_PERICENTER": 333.1349,
    "MEAN_ANOMALY": 26.9363,
    "EPHEMERIS_TYPE": 0,
    "CLASSIFICATION_TYPE": "U",
    "NORAD_CAT_ID": 35682,
    "ELEMENT_SET_NO": 999,
    "REV_AT_EPOCH": 90990,
    "BSTAR": 0.000059439,
    "MEAN_MOTION_DOT": 0.00000351,
    "MEAN_MOTION_DDOT": 0
   }
  }
 ]
}
