DLR-TUBSAT              
1 25757U 99029B   26200.46510716  .00000004  00000+0  12968-4 0  9998
2 25757  98.6713 197.0341 0013036 250.6388 109.3398 14.52433739437932
DMSP 5D-3 F16 (USA 172) 
1 28054U 03048A   26200.85305925 -.00000064  00000+0 -96118-5 0  9992
2 28054  98.9896 224.8963 0007982  59.6833  43.2128 14.14484701174101
DMSP 5D-3 F17 (USA 191) 
1 29522U 06050A   26200.83826255 -.00000025  00000+0  93939-5 0  9995
2 29522  98.7389 206.7417 0009456 329.0074  31.0541 14.14996271 17042
DEIMOS-1                
1 35681U 09041A   26200.87862865  .00000532  00000+0  85720-4 0  9992
2 35681  97.7444 356.6956 0002798  85.3667 274.7862 14.75267658911706
DUBAISAT-1              
1 35682U 09041B   26200.78346361  .00000351  00000+0  59439-4 0  9998
2 35682  98.0091 333.6918 0009564 333.1349  26.9363 14.75170399909908
DMSP 5D-3 F18 (USA 210) 
1 35951U 09057A   26200.88239115  .00000164  00000+0  10812-3 0  9996
2 35951  98.9060 181.5842 0011505 152.5750 207.6033 14.14913729864216
DEIMOS-2                
1 40013U 14033D   26200.80554196  .00001233  00000+0  12139-3 0  9994
2 40013  97.5780  74.1419 0001444 106.6103 253.5276 14.93805073642598
CYGFM05                 
1 41884U 16078A   26200.87148088  .00015836  00000+0  20458-3 0  9995
2 41884  34.9573  43.9264 0005319  88.6074 271.5260 15.57999934533855
CYGFM08                 
1 41888U 16078E   26200.87432411  .00020276  00000+0  22753-3 0  9999
2 41888  34.9437  23.3710 0005978 120.9672 239.1641 15.61638702534088
CYGFM07                 
1 41890U 16078G   26200.83131142  .00020034  00000+0  22396-3 0  9990
2 41890  34.9455  11.9703 0004644 139.0403 221.0672 15.61746801534105
